{"fetched_at":"2026-07-23T17:55:37.447Z","source":"https://celestrak.org/NORAD/elements/gp.php?NAME=JILIN&FORMAT=JSON","constellation":"jilin-1-gaofen","records":[{"OBJECT_NAME":"JILIN-1 GAOFEN 03D51","OBJECT_ID":"2022-155B","EPOCH":"2026-07-23T07:30:58.915296","CLASSIFICATION_TYPE":"U","MEAN_MOTION":15.65593964,"ECCENTRICITY":0.00047551,"INCLINATION":97.626,"RA_OF_ASC_NODE":352.0008,"ARG_OF_PERICENTER":203.7563,"MEAN_ANOMALY":156.3478,"EPHEMERIS_TYPE":0,"NORAD_CAT_ID":54252,"ELEMENT_SET_NO":999,"REV_AT_EPOCH":20539,"BSTAR":0.00061323906,"MEAN_MOTION_DOT":0.00061822,"MEAN_MOTION_DDOT":0},{"OBJECT_NAME":"JILIN-1 GAOFEN 03D53","OBJECT_ID":"2022-155C","EPOCH":"2026-07-23T08:19:24.447072","CLASSIFICATION_TYPE":"U","MEAN_MOTION":15.54850317,"ECCENTRICITY":0.00053088,"INCLINATION":97.6254,"RA_OF_ASC_NODE":347.1,"ARG_OF_PERICENTER":219.9953,"MEAN_ANOMALY":140.091,"EPHEMERIS_TYPE":0,"NORAD_CAT_ID":54253,"ELEMENT_SET_NO":999,"REV_AT_EPOCH":20510,"BSTAR":0.00054688939,"MEAN_MOTION_DOT":0.00036491,"MEAN_MOTION_DDOT":0},{"OBJECT_NAME":"JILIN-1 GAOFEN 03D52","OBJECT_ID":"2022-155E","EPOCH":"2026-07-23T07:35:37.105152","CLASSIFICATION_TYPE":"U","MEAN_MOTION":15.62662726,"ECCENTRICITY":0.00041874,"INCLINATION":97.6236,"RA_OF_ASC_NODE":350.1748,"ARG_OF_PERICENTER":217.2802,"MEAN_ANOMALY":142.8165,"EPHEMERIS_TYPE":0,"NORAD_CAT_ID":54255,"ELEMENT_SET_NO":999,"REV_AT_EPOCH":20534,"BSTAR":0.0006002243,"MEAN_MOTION_DOT":0.00053864,"MEAN_MOTION_DDOT":0},{"OBJECT_NAME":"JILIN-1 GAOFEN 03D50","OBJECT_ID":"2022-167J","EPOCH":"2026-07-23T07:28:12.430272","CLASSIFICATION_TYPE":"U","MEAN_MOTION":15.35188069,"ECCENTRICITY":0.00045018,"INCLINATION":97.6862,"RA_OF_ASC_NODE":13.6557,"ARG_OF_PERICENTER":353.3662,"MEAN_ANOMALY":6.752,"EPHEMERIS_TYPE":0,"NORAD_CAT_ID":54690,"ELEMENT_SET_NO":999,"REV_AT_EPOCH":20089,"BSTAR":0.00033607446,"MEAN_MOTION_DOT":0.00011401,"MEAN_MOTION_DDOT":0},{"OBJECT_NAME":"JILIN-1 GAOFEN 03D47","OBJECT_ID":"2022-167L","EPOCH":"2026-07-23T07:39:17.669664","CLASSIFICATION_TYPE":"U","MEAN_MOTION":15.34463902,"ECCENTRICITY":0.00070964,"INCLINATION":97.6959,"RA_OF_ASC_NODE":15.4031,"ARG_OF_PERICENTER":1.8557,"MEAN_ANOMALY":358.271,"EPHEMERIS_TYPE":0,"NORAD_CAT_ID":54692,"ELEMENT_SET_NO":999,"REV_AT_EPOCH":20088,"BSTAR":0.00032319266,"MEAN_MOTION_DOT":0.00010715,"MEAN_MOTION_DDOT":0},{"OBJECT_NAME":"JILIN-1 GAOFEN 03D49","OBJECT_ID":"2022-167N","EPOCH":"2026-07-23T07:33:37.410912","CLASSIFICATION_TYPE":"U","MEAN_MOTION":15.38187426,"ECCENTRICITY":0.00054091,"INCLINATION":97.6837,"RA_OF_ASC_NODE":16.09,"ARG_OF_PERICENTER":23.6592,"MEAN_ANOMALY":336.49,"EPHEMERIS_TYPE":0,"NORAD_CAT_ID":54694,"ELEMENT_SET_NO":999,"REV_AT_EPOCH":20104,"BSTAR":0.00035294576,"MEAN_MOTION_DOT":0.00013199,"MEAN_MOTION_DDOT":0},{"OBJECT_NAME":"JILIN-1 GAOFEN 03D48","OBJECT_ID":"2022-167P","EPOCH":"2026-07-23T07:11:53.589120","CLASSIFICATION_TYPE":"U","MEAN_MOTION":15.35922107,"ECCENTRICITY":0.00057234,"INCLINATION":97.6908,"RA_OF_ASC_NODE":15.3791,"ARG_OF_PERICENTER":2.1989,"MEAN_ANOMALY":357.9278,"EPHEMERIS_TYPE":0,"NORAD_CAT_ID":54695,"ELEMENT_SET_NO":999,"REV_AT_EPOCH":20093,"BSTAR":0.000349087,"MEAN_MOTION_DOT":0.00012131,"MEAN_MOTION_DDOT":0},{"OBJECT_NAME":"JILIN GAOFEN OBJECT A","OBJECT_ID":"2026-080A","EPOCH":"2026-07-21T15:09:09.839232","CLASSIFICATION_TYPE":"U","MEAN_MOTION":15.09236821,"ECCENTRICITY":0.00108245,"INCLINATION":97.6606,"RA_OF_ASC_NODE":278.1015,"ARG_OF_PERICENTER":310.5332,"MEAN_ANOMALY":49.4954,"EPHEMERIS_TYPE":0,"NORAD_CAT_ID":68691,"ELEMENT_SET_NO":999,"REV_AT_EPOCH":1485,"BSTAR":0.00029113949,"MEAN_MOTION_DOT":0.00004573,"MEAN_MOTION_DDOT":0},{"OBJECT_NAME":"JILIN GAOFEN OBJECT B","OBJECT_ID":"2026-080B","EPOCH":"2026-07-23T06:32:21.236064","CLASSIFICATION_TYPE":"U","MEAN_MOTION":15.08956096,"ECCENTRICITY":0.00153213,"INCLINATION":97.6585,"RA_OF_ASC_NODE":279.7482,"ARG_OF_PERICENTER":283.4198,"MEAN_ANOMALY":76.5322,"EPHEMERIS_TYPE":0,"NORAD_CAT_ID":68692,"ELEMENT_SET_NO":999,"REV_AT_EPOCH":1510,"BSTAR":0.00030407887,"MEAN_MOTION_DOT":0.00004749,"MEAN_MOTION_DDOT":0},{"OBJECT_NAME":"JILIN GAOFEN OBJECT C","OBJECT_ID":"2026-080C","EPOCH":"2026-07-21T19:55:39.764640","CLASSIFICATION_TYPE":"U","MEAN_MOTION":15.08937375,"ECCENTRICITY":0.00131337,"INCLINATION":97.6584,"RA_OF_ASC_NODE":278.2795,"ARG_OF_PERICENTER":290.006,"MEAN_ANOMALY":69.9754,"EPHEMERIS_TYPE":0,"NORAD_CAT_ID":68693,"ELEMENT_SET_NO":999,"REV_AT_EPOCH":1488,"BSTAR":0.00035856619,"MEAN_MOTION_DOT":0.00005605,"MEAN_MOTION_DDOT":0},{"OBJECT_NAME":"JILIN GAOFEN OBJECT D","OBJECT_ID":"2026-080D","EPOCH":"2026-07-23T06:33:05.503104","CLASSIFICATION_TYPE":"U","MEAN_MOTION":15.09015366,"ECCENTRICITY":0.00158995,"INCLINATION":97.665,"RA_OF_ASC_NODE":279.8299,"ARG_OF_PERICENTER":295.6955,"MEAN_ANOMALY":64.2631,"EPHEMERIS_TYPE":0,"NORAD_CAT_ID":68694,"ELEMENT_SET_NO":999,"REV_AT_EPOCH":1508,"BSTAR":0.00033501471,"MEAN_MOTION_DOT":0.00005249,"MEAN_MOTION_DDOT":0},{"OBJECT_NAME":"JILIN GAOFEN OBJECT E","OBJECT_ID":"2026-080E","EPOCH":"2026-07-23T06:07:01.188768","CLASSIFICATION_TYPE":"U","MEAN_MOTION":15.08973226,"ECCENTRICITY":0.00132296,"INCLINATION":97.6626,"RA_OF_ASC_NODE":279.8298,"ARG_OF_PERICENTER":306.3053,"MEAN_ANOMALY":53.6953,"EPHEMERIS_TYPE":0,"NORAD_CAT_ID":68695,"ELEMENT_SET_NO":999,"REV_AT_EPOCH":1506,"BSTAR":0.000291658,"MEAN_MOTION_DOT":0.00004551,"MEAN_MOTION_DDOT":0},{"OBJECT_NAME":"JILIN GAOFEN OBJECT F","OBJECT_ID":"2026-080F","EPOCH":"2026-07-23T06:05:44.088000","CLASSIFICATION_TYPE":"U","MEAN_MOTION":15.08957345,"ECCENTRICITY":0.00118979,"INCLINATION":97.6597,"RA_OF_ASC_NODE":279.7942,"ARG_OF_PERICENTER":309.0616,"MEAN_ANOMALY":50.9553,"EPHEMERIS_TYPE":0,"NORAD_CAT_ID":68696,"ELEMENT_SET_NO":999,"REV_AT_EPOCH":1506,"BSTAR":0.00030016158,"MEAN_MOTION_DOT":0.00004682,"MEAN_MOTION_DDOT":0},{"OBJECT_NAME":"JILIN GAOFEN OBJECT G","OBJECT_ID":"2026-080G","EPOCH":"2026-07-23T05:45:45.503136","CLASSIFICATION_TYPE":"U","MEAN_MOTION":15.08946848,"ECCENTRICITY":0.00142847,"INCLINATION":97.6638,"RA_OF_ASC_NODE":279.869,"ARG_OF_PERICENTER":305.1372,"MEAN_ANOMALY":54.8518,"EPHEMERIS_TYPE":0,"NORAD_CAT_ID":68697,"ELEMENT_SET_NO":999,"REV_AT_EPOCH":1506,"BSTAR":0.00035107108,"MEAN_MOTION_DOT":0.0000549,"MEAN_MOTION_DDOT":0},{"OBJECT_NAME":"JILIN GAOFEN OBJECT H","OBJECT_ID":"2026-080H","EPOCH":"2026-07-22T15:23:13.305408","CLASSIFICATION_TYPE":"U","MEAN_MOTION":15.08968714,"ECCENTRICITY":0.00145703,"INCLINATION":97.6625,"RA_OF_ASC_NODE":279.2607,"ARG_OF_PERICENTER":309.413,"MEAN_ANOMALY":50.5808,"EPHEMERIS_TYPE":0,"NORAD_CAT_ID":68698,"ELEMENT_SET_NO":999,"REV_AT_EPOCH":1497,"BSTAR":0.00030148004,"MEAN_MOTION_DOT":0.00004708,"MEAN_MOTION_DDOT":0}]}
