JILIN-1 GAOFEN 03D51    
1 54252U 22155B   26204.31318189  .00061822  00000+0  61324-3 0  9998
2 54252  97.6260 352.0008 0004755 203.7563 156.3478 15.65593964205391
JILIN-1 GAOFEN 03D53    
1 54253U 22155C   26204.34681073  .00036491  00000+0  54689-3 0  9997
2 54253  97.6254 347.1000 0005308 219.9953 140.0910 15.54850317205105
JILIN-1 GAOFEN 03D52    
1 54255U 22155E   26204.31640168  .00053864  00000+0  60022-3 0  9997
2 54255  97.6236 350.1748 0004187 217.2802 142.8165 15.62662726205340
JILIN-1 GAOFEN 03D50    
1 54690U 22167J   26204.31125498  .00011401  00000+0  33607-3 0  9997
2 54690  97.6862  13.6557 0004501 353.3662   6.7520 15.35188069200894
JILIN-1 GAOFEN 03D47    
1 54692U 22167L   26204.31895451  .00010715  00000+0  32319-3 0  9998
2 54692  97.6959  15.4031 0007096   1.8557 358.2710 15.34463902200886
JILIN-1 GAOFEN 03D49    
1 54694U 22167N   26204.31501633  .00013199  00000+0  35295-3 0  9991
2 54694  97.6837  16.0900 0005409  23.6592 336.4900 15.38187426201048
JILIN-1 GAOFEN 03D48    
1 54695U 22167P   26204.29992580  .00012131  00000+0  34909-3 0  9990
2 54695  97.6908  15.3791 0005723   2.1989 357.9278 15.35922107200932
JILIN GAOFEN OBJECT A   
1 68691U 26080A   26202.63136388  .00004573  00000+0  29114-3 0  9994
2 68691  97.6606 278.1015 0010824 310.5332  49.4954 15.09236821 14852
JILIN GAOFEN OBJECT B   
1 68692U 26080B   26204.27246801  .00004749  00000+0  30408-3 0  9992
2 68692  97.6585 279.7482 0015321 283.4198  76.5322 15.08956096 15100
JILIN GAOFEN OBJECT C   
1 68693U 26080C   26202.83032135  .00005605  00000+0  35857-3 0  9991
2 68693  97.6584 278.2795 0013133 290.0060  69.9754 15.08937375 14880
JILIN GAOFEN OBJECT D   
1 68694U 26080D   26204.27298036  .00005249  00000+0  33501-3 0  9994
2 68694  97.6650 279.8299 0015899 295.6955  64.2631 15.09015366 15089
JILIN GAOFEN OBJECT E   
1 68695U 26080E   26204.25487487  .00004551  00000+0  29166-3 0  9990
2 68695  97.6626 279.8298 0013229 306.3053  53.6953 15.08973226 15060
JILIN GAOFEN OBJECT F   
1 68696U 26080F   26204.25398250  .00004682  00000+0  30016-3 0  9991
2 68696  97.6597 279.7942 0011897 309.0616  50.9553 15.08957345 15067
JILIN GAOFEN OBJECT G   
1 68697U 26080G   26204.24010999  .00005490  00000+0  35107-3 0  9996
2 68697  97.6638 279.8690 0014284 305.1372  54.8518 15.08946848 15064
JILIN GAOFEN OBJECT H   
1 68698U 26080H   26203.64112622  .00004708  00000+0  30148-3 0  9997
2 68698  97.6625 279.2607 0014570 309.4130  50.5808 15.08968714 14970
